STARLINK-1812           
1 47126U 20088E   26068.90575686  .00039367  00000+0  20820-2 0  9997
2 47126  53.0793 298.6686 0002749 128.8313 231.2926 15.15107348291903
2025-180A               
1 65259U 25180A   26060.20974942  .00023159  00000+0  10883-2 0  9995
2 65259  97.5026 189.2879 0011911 335.2896  24.7766 15.19541211 29374
